OBJECT_NAME,OBJECT_ID,EPOCH,MEAN_MOTION,ECCENTRICITY,INCLINATION,RA_OF_ASC_NODE,ARG_OF_PERICENTER,MEAN_ANOMALY,EPHEMERIS_TYPE,CLASSIFICATION_TYPE,NORAD_CAT_ID,ELEMENT_SET_NO,REV_AT_EPOCH,BSTAR,MEAN_MOTION_DOT,MEAN_MOTION_DDOT
SAUDISAT 2,2004-025F,2026-07-09T11:45:59.678784,14.56696323,.00237709,98.5516,191.0492,226.2459,133.6771,0,U,28371,999,16899,.45778518E-4,.155E-5,0
COSMOS 2407,2004-028A,2026-07-11T01:47:55.857984,13.76336323,.003902,82.9589,57.1397,183.5878,330.2004,0,U,28380,999,10316,.22534E-4,.37E-6,0
COSMOS 2414,2005-002A,2026-07-09T12:35:16.358496,13.87927839,.00386692,82.9485,26.7460,265.6178,94.0566,0,U,28521,999,8691,.29496769E-4,.51E-6,0
INMARSAT 4-F1,2005-009A,2026-07-10T17:52:30.717408,1.00270922,.0002533,5.1982,42.7775,72.2735,259.8459,0,U,28628,999,7790,0,.37E-6,0
SJ-7,2005-024A,2026-07-11T00:37:33.712032,15.21897530,.0013907,97.7281,222.7748,312.8403,47.1663,0,U,28737,999,15165,.21827E-3,.4905E-4,0
CUBESAT XI-V,2005-043F,2026-07-10T08:49:55.529184,14.72694805,.00150968,98.3010,347.4805,129.3634,230.8913,0,U,28895,999,10516,.14886521E-3,.898E-5,0
HINODE (SOLAR-B),2006-041A,2026-07-11T00:45:03.443040,14.68654917,.0016693,98.0548,207.8324,208.0803,151.9503,0,U,29479,999,5837,.69892E-4,.358E-5,0
SHIJIAN-6 02B (SJ-6 02B),2006-046B,2026-07-11T04:55:55.067808,15.01433013,.0013894,97.7156,221.1157,349.7985,10.2955,0,U,29506,999,7434,.54038E-4,.638E-5,0
DMSP 5D-3 F17 (USA 191),2006-050A,2026-07-11T05:04:34.126176,14.14995998,.0009965,98.7385,198.2905,354.4858,5.6204,0,U,29522,999,1582,.21305E-4,-.2E-7,0
LAPAN-TUBSAT,2007-001A,2026-07-11T03:49:11.944128,14.85974702,.001355,98.1353,191.9242,105.5885,254.6826,0,U,29709,999,5471,.77387E-4,.619E-5,0
HAIYANG-1B,2007-010A,2026-07-10T10:16:35.602176,14.31032554,.00144857,98.3511,172.3737,128.9609,231.2868,0,U,31113,999,396,.35366842E-4,.52E-6,0
COSMO-SKYMED 2,2007-059A,2026-07-11T04:40:28.930656,14.82148502,.0001441,97.8891,15.4452,92.9268,267.2110,0,U,32376,999,556,.30715E-4,.192E-5,0
CARTOSAT-2A,2008-021A,2026-07-11T04:40:48.457056,14.79272669,.0012785,97.7626,240.0829,39.3281,320.8857,0,U,32783,999,98235,.80716E-5,.1E-6,0
CUTE-1.7+APD II (CO-65),2008-021C,2026-07-11T04:16:10.883136,15.09676401,.0007336,97.8285,174.1007,315.7430,44.3211,0,U,32785,999,98881,.20044E-3,.3162E-4,0
SEEDS II (CO-66),2008-021J,2026-07-10T10:27:44.320896,15.33559548,.0002534,97.7526,190.4573,167.6964,192.4340,0,U,32791,999,99085,.41058285E-3,.13245E-3,0
YUBILEINY (RS30),2008-025A,2026-07-11T03:52:25.423968,12.43180753,.0018553,82.5055,340.5258,258.3917,101.5080,0,U,32953,999,82267,.43061E-3,.7E-6,0
FENGYUN 3A,2008-026A,2026-07-09T17:49:54.676416,14.19575738,.00098153,98.6887,131.1547,65.9784,294.2419,0,U,32958,999,93860,.32429441E-4,.25E-6,0
HUANJING 1A (HJ-1A),2008-041A,2026-07-11T05:41:59.913600,14.84042631,.0020526,97.6693,177.1472,61.6547,298.6735,0,U,33320,999,96197,.1083E-3,.854E-5,0
HUANJING 1B (HJ-1B),2008-041B,2026-07-11T05:13:21.140256,14.83362161,.0037923,97.6532,180.2272,103.7051,256.8390,0,U,33321,999,96197,.1092E-3,.854E-5,0
SHIJIAN-6 03A (SJ-6 03A),2008-053A,2026-07-11T04:28:02.099424,15.17391377,.0009566,97.8404,226.3428,291.9508,68.0707,0,U,33408,999,96660,.97041E-4,.1867E-4,0
SHIJIAN-6 03B (SJ-6 03B),2008-053B,2026-07-11T04:17:01.632768,15.04376733,.0018102,97.8583,212.4676,325.5203,34.4847,0,U,33409,999,96635,.64288E-4,.834E-5,0
CHUANGXIN 1-02 (CX-1-02),2008-056B,2026-07-11T05:23:30.867648,14.30157493,.0015482,98.6135,218.2508,71.3505,288.9357,0,U,33434,999,92205,-.23389E-4,-.104E-5,0
