SAUDISAT 2              
1 28371U 04025F   26190.49027406  .00000155  00000+0  45779-4 0  9998
2 28371  98.5516 191.0492 0023770 226.2459 133.6771 14.56696323168998
COSMOS 2407             
1 28380U 04028A   26192.07495206  .00000037  00000+0  22534-4 0  9997
2 28380  82.9589  57.1397 0039020 183.5878 330.2004 13.76336323103160
COSMOS 2414             
1 28521U 05002A   26190.52449489  .00000051  00000+0  29497-4 0  9998
2 28521  82.9485  26.7460 0038669 265.6178  94.0566 13.87927839 86919
INMARSAT 4-F1           
1 28628U 05009A   26191.74479997  .00000037  00000+0  00000+0 0  9993
2 28628   5.1982  42.7775 0002533  72.2735 259.8459  1.00270922 77902
SJ-7                    
1 28737U 05024A   26192.02608463  .00004905  00000+0  21827-3 0  9997
2 28737  97.7281 222.7748 0013907 312.8403  47.1663 15.21897530151652
CUBESAT XI-V            
1 28895U 05043F   26191.36800381  .00000898  00000+0  14887-3 0  9997
2 28895  98.3010 347.4805 0015096 129.3634 230.8913 14.72694805105160
HINODE (SOLAR-B)        
1 29479U 06041A   26192.03128985  .00000358  00000+0  69892-4 0  9991
2 29479  98.0548 207.8324 0016693 208.0803 151.9503 14.68654917 58377
SHIJIAN-6 02B (SJ-6 02B)
1 29506U 06046B   26192.20549847  .00000638  00000+0  54038-4 0  9997
2 29506  97.7156 221.1157 0013894 349.7985  10.2955 15.01433013 74349
DMSP 5D-3 F17 (USA 191) 
1 29522U 06050A   26192.21150609 -.00000002  00000+0  21305-4 0  9992
2 29522  98.7385 198.2905 0009965 354.4858   5.6204 14.14995998 15824
LAPAN-TUBSAT            
1 29709U 07001A   26192.15916602  .00000619  00000+0  77387-4 0  9996
2 29709  98.1353 191.9242 0013550 105.5885 254.6826 14.85974702 54719
HAIYANG-1B              
1 31113U 07010A   26191.42818984  .00000052  00000+0  35367-4 0  9994
2 31113  98.3511 172.3737 0014485 128.9609 231.2868 14.31032554  3961
COSMO-SKYMED 2          
1 32376U 07059A   26192.19477929  .00000192  00000+0  30715-4 0  9991
2 32376  97.8891  15.4452 0001441  92.9268 267.2110 14.82148502  5562
CARTOSAT-2A             
1 32783U 08021A   26192.19500529  .00000010  00000+0  80716-5 0  9992
2 32783  97.7626 240.0829 0012785  39.3281 320.8857 14.79272669982359
CUTE-1.7+APD II (CO-65) 
1 32785U 08021C   26192.17790374  .00003162  00000+0  20044-3 0  9998
2 32785  97.8285 174.1007 0007336 315.7430  44.3211 15.09676401988816
SEEDS II (CO-66)        
1 32791U 08021J   26191.43592964  .00013245  00000+0  41058-3 0  9999
2 32791  97.7526 190.4573 0002534 167.6964 192.4340 15.33559548990854
YUBILEINY (RS30)        
1 32953U 08025A   26192.16140537  .00000070  00000+0  43061-3 0  9997
2 32953  82.5055 340.5258 0018553 258.3917 101.5080 12.43180753822677
FENGYUN 3A              
1 32958U 08026A   26190.74299394  .00000025  00000+0  32429-4 0  9998
2 32958  98.6887 131.1547 0009815  65.9784 294.2419 14.19575738938606
HUANJING 1A (HJ-1A)     
1 33320U 08041A   26192.23749900  .00000854  00000+0  10830-3 0  9999
2 33320  97.6693 177.1472 0020526  61.6547 298.6735 14.84042631961971
HUANJING 1B (HJ-1B)     
1 33321U 08041B   26192.21760579  .00000854  00000+0  10920-3 0  9993
2 33321  97.6532 180.2272 0037923 103.7051 256.8390 14.83362161961979
SHIJIAN-6 03A (SJ-6 03A)
1 33408U 08053A   26192.18613541  .00001867  00000+0  97041-4 0  9999
2 33408  97.8404 226.3428 0009566 291.9508  68.0707 15.17391377966608
SHIJIAN-6 03B (SJ-6 03B)
1 33409U 08053B   26192.17849112  .00000834  00000+0  64288-4 0  9994
2 33409  97.8583 212.4676 0018102 325.5203  34.4847 15.04376733966359
CHUANGXIN 1-02 (CX-1-02)
1 33434U 08056B   26192.22466282 -.00000104  00000+0 -23389-4 0  9993
2 33434  98.6135 218.2508 0015482  71.3505 288.9357 14.30157493922055
